STARLINK-1434           
1 45712U 20035BH  26068.24137979  .00054112  00000+0  20295-2 0  9995
2 45712  53.0547  22.1128 0005343  88.0400 272.1210 15.26724568319325
STARLINK-33821          
1 63859U 25093Z   26068.05884094  .00032066  00000+0  11695-2 0  9990
2 63859  43.0003  81.5957 0000901 277.1325  82.9424 15.27586901 47852
